[{"OBJECT_NAME":"BISONSAT","OBJECT_ID":"2015-058L","EPOCH":"2026-03-09T11:49:35.353056","MEAN_MOTION":15.13791398,"ECCENTRICITY":0.00792382,"INCLINATION":64.7598,"RA_OF_ASC_NODE":135.3937,"ARG_OF_PERICENTER":90.6713,"MEAN_ANOMALY":270.349,"EPHEMERIS_TYPE":0,"CLASSIFICATION_TYPE":"U","NORAD_CAT_ID":40974,"ELEMENT_SET_NO":999,"REV_AT_EPOCH":10051,"BSTAR":0.0006711096,"MEAN_MOTION_DOT":0.00012971,"MEAN_MOTION_DDOT":0},{"OBJECT_NAME":"STARLINK-5309","OBJECT_ID":"2023-010AT","EPOCH":"2026-03-09T23:30:49.083264","MEAN_MOTION":14.98327794,"ECCENTRICITY":0.00025319,"INCLINATION":70.0019,"RA_OF_ASC_NODE":3.8092,"ARG_OF_PERICENTER":272.8662,"MEAN_ANOMALY":87.2208,"EPHEMERIS_TYPE":0,"CLASSIFICATION_TYPE":"U","NORAD_CAT_ID":55310,"ELEMENT_SET_NO":999,"REV_AT_EPOCH":17381,"BSTAR":-6.3457602e-5,"MEAN_MOTION_DOT":-8.5e-6,"MEAN_MOTION_DDOT":0}]
